HAWK-2A                 
1 47505U 21006CW  26068.67946547  .00008113  00000+0  25431-3 0  9990
2 47505  97.2459 115.6184 0006450 187.1463 172.9689 15.33304498284242
STARLINK-35473          
1 65937U 25225AD  26068.55038796  .00020370  00000+0  69852-3 0  9995
2 65937  53.1580 166.5474 0001287  67.5136 292.6001 15.30175812 23494
